NORAD_CAT_ID,OBJECT_NAME,OBJECT_TYPE,EPOCH,MEAN_MOTION,ECCENTRICITY,INCLINATION,RA_OF_ASC_NODE,ARG_OF_PERICENTER,MEAN_ANOMALY,BSTAR,MEAN_MOTION_DOT,MEAN_MOTION_DDOT,TLE_LINE0,TLE_LINE1,TLE_LINE2,SEMIMAJOR_AXIS,PERIOD,APOGEE,PERIGEE,DECAYED
55279.0,STARLINK-5323,PAYLOAD,2024-07-13 21:33:43,14.98328897,0.0002971,70.0002,126.8365,268.8418,91.24,3.2262e-05,2.92e-06,0.0,0 STARLINK-5323,1 55279U 23010L   24195.89842542  .00000292  00000-0  32262-4 0  9999,2 55279  70.0002 126.8365 0002971 268.8418  91.2400 14.98328897 82348,6950.196,96.107,574.126,569.996,0.0
55279.0,STARLINK-5323,PAYLOAD,2024-07-14 03:58:15,14.9833474,0.0002929,70.0002,126.163,270.0092,90.0732,6.2161e-05,6.49e-06,0.0,0 STARLINK-5323,1 55279U 23010L   24196.16546079  .00000649  00000-0  62161-4 0  9993,2 55279  70.0002 126.1630 0002929 270.0092  90.0732 14.98334740 82060,6950.178,96.107,574.079,570.008,0.0
55279.0,STARLINK-5323,PAYLOAD,2024-07-14 05:34:23,14.98336606,0.0002907,70.0003,125.9946,270.059,90.0235,8.1676e-05,8.82e-06,0.0,0 STARLINK-5323,1 55279U 23010L   24196.23221896  .00000882  00000-0  81676-4 0  9999,2 55279  70.0003 125.9946 0002907 270.0590  90.0235 14.98336606 82394,6950.172,96.107,574.058,570.017,0.0
55279.0,STARLINK-5323,PAYLOAD,2024-07-14 19:59:36,14.98331015,0.0002634,70.0007,124.4799,272.6651,87.4207,-6.0434e-05,-8.14e-06,0.0,0 STARLINK-5323,1 55279U 23010L   24196.83306643 -.00000814  00000-0 -60434-4 0  9995,2 55279  70.0007 124.4799 0002634 272.6651  87.4207 14.98331015 82164,6950.19,96.107,573.885,570.224,0.0
55279.0,STARLINK-5323,PAYLOAD,2024-07-14 21:35:45,14.98330667,0.0002646,70.0007,124.3116,272.6269,87.4587,-5.8555e-05,-7.92e-06,0.0,0 STARLINK-5323,1 55279U 23010L   24196.89982650 -.00000792  00000-0 -58555-4 0  9995,2 55279  70.0007 124.3116 0002646 272.6269  87.4587 14.98330667 82493,6950.191,96.107,573.895,570.217,0.0
55279.0,STARLINK-5323,PAYLOAD,2024-07-15 12:00:57,14.98346938,0.0002722,70.0013,122.7987,267.781,92.3037,-0.00035737,-4.356e-05,0.0,0 STARLINK-5323,1 55279U 23010L   24197.50066113 -.00004356  00000-0 -35737-3 0  9997,2 55279  70.0013 122.7987 0002722 267.7810  92.3037 14.98346938 82268,6950.141,96.106,573.897,570.114,0.0
55279.0,STARLINK-5323,PAYLOAD,2024-07-15 20:01:37,14.98329007,0.0002743,70.0012,121.957,267.7559,92.3286,2.3389e-05,1.86e-06,0.0,0 STARLINK-5323,1 55279U 23010L   24197.83446427  .00000186  00000-0  23389-4 0  9999,2 55279  70.0012 121.9570 0002743 267.7559  92.3286 14.98329007 82319,6950.196,96.107,573.967,570.155,0.0
55279.0,STARLINK-5323,PAYLOAD,2024-07-15 21:37:45,14.98322025,0.0002693,70.0011,121.7885,267.2318,92.8533,0.00011994,1.338e-05,0.0,0 STARLINK-5323,1 55279U 23010L   24197.90122652  .00001338  00000-0  11994-3 0  9996,2 55279  70.0011 121.7885 0002693 267.2318  92.8533 14.98322025 82646,6950.218,96.108,573.954,570.211,0.0
55279.0,STARLINK-5323,PAYLOAD,2024-07-16 04:02:17,14.98332625,0.0002637,70.0009,121.1145,268.2058,91.8799,1.5694e-05,9.4e-07,0.0,0 STARLINK-5323,1 55279U 23010L   24198.16826244  .00000094  00000-0  15694-4 0  9993,2 55279  70.0009 121.1145 0002637 268.2058  91.8799 14.98332625 82680,6950.185,96.107,573.883,570.217,0.0
55279.0,STARLINK-5323,PAYLOAD,2024-07-16 21:39:46,14.98335138,0.0002576,70.0009,119.2629,268.3697,91.7167,6.2481e-05,6.53e-06,0.0,0 STARLINK-5323,1 55279U 23010L   24198.90261772  .00000653  00000-0  62481-4 0  9991,2 55279  70.0009 119.2629 0002576 268.3697  91.7167 14.98335138 82799,6950.177,96.107,573.832,570.252,0.0
55279.0,STARLINK-5323,PAYLOAD,2024-07-17 12:04:58,14.98334401,0.0002468,70.0012,117.7453,278.9362,81.1518,-3.2428e-05,-4.8e-06,0.0,0 STARLINK-5323,1 55279U 23010L   24199.50346007 -.00000480  00000-0 -32428-4 0  9991,2 55279  70.0012 117.7453 0002468 278.9362  81.1518 14.98334401 82882,6950.179,96.107,573.76,570.329,0.0
55279.0,STARLINK-5323,PAYLOAD,2024-07-17 20:05:39,14.98327435,0.0002437,70.0007,116.9069,275.4734,84.6147,2.0459e-05,1.51e-06,0.0,0 STARLINK-5323,1 55279U 23010L   24199.83726358  .00000151  00000-0  20459-4 0  9992,2 55279  70.0007 116.9069 0002437 275.4734  84.6147 14.98327435 82617,6950.201,96.107,573.76,570.372,0.0
55279.0,STARLINK-5323,PAYLOAD,2024-07-17 21:41:48,14.98321475,0.0002683,70.0007,116.7382,273.3036,86.7816,-4.1166e-05,-5.84e-06,0.0,0 STARLINK-5323,1 55279U 23010L   24199.90402864 -.00000584  00000-0 -41166-4 0  9993,2 55279  70.0007 116.7382 0002683 273.3036  86.7816 14.98321475 82948,6950.219,96.108,573.949,570.22,0.0
55279.0,STARLINK-5323,PAYLOAD,2024-07-18 12:07:00,14.98325047,0.0002799,70.0007,115.2228,269.5409,90.543,-8.7166e-05,-1.133e-05,0.0,0 STARLINK-5323,1 55279U 23010L   24200.50486952 -.00001133  00000-0 -87166-4 0  9993,2 55279  70.0007 115.2228 0002799 269.5409  90.5430 14.98325047 83035,6950.208,96.107,574.019,570.128,0.0
55279.0,STARLINK-5323,PAYLOAD,2024-07-18 20:07:40,14.98326221,0.0002868,70.0006,114.3813,269.6501,90.4329,-3.8216e-05,-5.49e-06,0.0,0 STARLINK-5323,1 55279U 23010L   24200.83866819 -.00000549  00000-0 -38216-4 0  9995,2 55279  70.0006 114.3813 0002868 269.6501  90.4329 14.98326221 82765,6950.205,96.107,574.063,570.076,0.0
55279.0,STARLINK-5323,PAYLOAD,2024-07-18 21:43:49,14.98326435,0.000286,70.0006,114.213,269.5864,90.4967,-3.8511e-05,-5.52e-06,0.0,0 STARLINK-5323,1 55279U 23010L   24200.90542828 -.00000552  00000-0 -38511-4 0  9996,2 55279  70.0006 114.2130 0002860 269.5864  90.4967 14.98326435 83091,6950.204,96.107,574.057,570.081,0.0
55279.0,STARLINK-5323,PAYLOAD,2024-07-19 04:08:20,14.98335325,0.0002751,70.0007,113.5396,263.7902,96.2944,-2.3045e-06,-1.2e-06,0.0,0 STARLINK-5323,1 55279U 23010L   24201.17246191 -.00000120  00000-0 -23045-5 0  9998,2 55279  70.0007 113.5396 0002751 263.7902  96.2944 14.98335325 82812,6950.176,96.107,573.953,570.129,0.0
55279.0,STARLINK-5323,PAYLOAD,2024-07-19 12:09:01,14.9833486,0.000276,70.0007,112.6976,270.5896,89.4947,-5.7598e-05,-7.8e-06,0.0,0 STARLINK-5323,1 55279U 23010L   24201.50626306 -.00000780  00000-0 -57598-4 0  9996,2 55279  70.0007 112.6976 0002760 270.5896  89.4947 14.98334860 83185,6950.178,96.107,573.961,570.125,0.0
55279.0,STARLINK-5323,PAYLOAD,2024-07-19 20:09:41,14.98317693,0.0002853,70.0005,111.856,270.391,89.6922,0.00031177,3.628e-05,0.0,0 STARLINK-5323,1 55279U 23010L   24201.84006548  .00003628  00000-0  31177-3 0  9999,2 55279  70.0005 111.8560 0002853 270.3910  89.6922 14.98317693 82911,6950.231,96.108,574.079,570.113,0.0
55279.0,STARLINK-5323,PAYLOAD,2024-07-19 21:45:49,14.98318823,0.0002843,70.0005,111.6874,270.3336,89.7497,0.00027993,3.248e-05,0.0,0 STARLINK-5323,1 55279U 23010L   24201.90682600  .00003248  00000-0  27993-3 0  9994,2 55279  70.0005 111.6874 0002843 270.3336  89.7497 14.98318823 83249,6950.227,96.108,574.068,570.117,0.0
55279.0,STARLINK-5323,PAYLOAD,2024-07-20 04:10:21,14.98332679,0.0002863,70.0006,111.0145,269.8489,90.2342,0.00017416,1.986e-05,0.0,0 STARLINK-5323,1 55279U 23010L   24202.17385993  .00001986  00000-0  17416-3 0  9995,2 55279  70.0006 111.0145 0002863 269.8489  90.2342 14.98332679 82968,6950.185,96.107,574.039,570.06,0.0
55279.0,STARLINK-5323,PAYLOAD,2024-07-20 20:11:42,14.98326588,0.0002939,70.0008,109.3311,269.3284,90.7538,8.6092e-05,9.34e-06,0.0,0 STARLINK-5323,1 55279U 23010L   24202.84146642  .00000934  00000-0  86092-4 0  9994,2 55279  70.0008 109.3311 0002939 269.3284  90.7538 14.98326588 83063,6950.203,96.107,574.111,570.026,0.0
55279.0,STARLINK-5323,PAYLOAD,2024-07-20 21:47:50,14.98326738,0.000293,70.0007,109.1628,269.2956,90.7867,8.0032e-05,8.62e-06,0.0,0 STARLINK-5323,1 55279U 23010L   24202.90822658  .00000862  00000-0  80032-4 0  9997,2 55279  70.0007 109.1628 0002930 269.2956  90.7867 14.98326738 83395,6950.203,96.107,574.104,570.032,0.0
55279.0,STARLINK-5323,PAYLOAD,2024-07-21 04:12:22,14.98333241,0.0002651,70.0013,108.4929,254.2952,105.7914,0.000122,1.363e-05,0.0,0 STARLINK-5323,1 55279U 23010L   24203.17526049  .00001363  00000-0  12200-3 0  9990,2 55279  70.0013 108.4929 0002651 254.2952 105.7914 14.98333241 83115,6950.183,96.107,573.89,570.205,0.0
55279.0,STARLINK-5323,PAYLOAD,2024-07-21 20:13:43,14.98327284,0.0002589,70.0014,106.8093,264.4188,95.6675,4.6135e-05,4.58e-06,0.0,0 STARLINK-5323,1 55279U 23010L   24203.84286567  .00000458  00000-0  46135-4 0  9991,2 55279  70.0014 106.8093 0002589 264.4188  95.6675 14.98327284 83216,6950.201,96.107,573.866,570.267,0.0
55279.0,STARLINK-5323,PAYLOAD,2024-07-21 21:49:51,14.98328102,0.0002613,70.0006,106.6382,263.8783,96.2078,-1.9556e-05,-3.26e-06,0.0,0 STARLINK-5323,1 55279U 23010L   24203.90962690 -.00000326  00000-0 -19556-4 0  9999,2 55279  70.0006 106.6382 0002613 263.8783  96.2078 14.98328102 83548,6950.199,96.107,573.88,570.248,0.0
55279.0,STARLINK-5323,PAYLOAD,2024-07-22 02:38:15,14.9832845,0.0002497,70.0012,106.1358,252.239,107.8497,9.4578e-06,2e-07,0.0,0 STARLINK-5323,1 55279U 23010L   24204.10990577  .00000020  00000-0  94578-5 0  9994,2 55279  70.0012 106.1358 0002497 252.2390 107.8497 14.98328450 83572,6950.198,96.107,573.798,570.327,0.0
55279.0,STARLINK-5323,PAYLOAD,2024-07-22 17:03:27,14.98335863,0.0002413,70.0009,104.6189,254.351,105.7382,5.9675e-05,6.19e-06,0.0,0 STARLINK-5323,1 55279U 23010L   24204.71073878  .00000619  00000-0  59675-4 0  9999,2 55279  70.0009 104.6189 0002413 254.3510 105.7382 14.98335863 83349,6950.175,96.107,573.717,570.363,0.0
55279.0,STARLINK-5323,PAYLOAD,2024-07-22 21:51:52,14.98322567,0.000243,70.0009,104.1136,253.3097,106.7795,0.00027495,3.189e-05,0.0,0 STARLINK-5323,1 55279U 23010L   24204.91102041  .00003189  00000-0  27495-3 0  9995,2 55279  70.0009 104.1136 0002430 253.3097 106.7795 14.98322567 83698,6950.216,96.107,573.77,570.392,0.0
55279.0,STARLINK-5323,PAYLOAD,2024-07-23 04:16:23,14.98336733,0.0002516,70.0007,103.4401,258.9703,101.1173,0.00012969,1.455e-05,0.0,0 STARLINK-5323,1 55279U 23010L   24205.17805516  .00001455  00000-0  12969-3 0  9995,2 55279  70.0007 103.4401 0002516 258.9703 101.1173 14.98336733 83737,6950.172,96.107,573.786,570.288,0.0
